{
  "type": "FeatureCollection",
  "features": [
    {
      "type": "Feature",
      "properties": {
        "norad_id": 67017,
        "name": "STARLINK-35498",
        "group": "last-30-days",
        "lat": 47.84375101403604,
        "lon": -34.04074815303738,
        "alt_km": 291.4442198035349,
        "timestamp": "2025-12-20T03:42:46.123064+00:00",
        "meta_object_name": "STARLINK-35498",
        "meta_object_id": "2025-293Q",
        "meta_epoch": "2025-12-19T20:00:01.999008",
        "meta_mean_motion": 15.93626114,
        "meta_eccentricity": 0.0004031,
        "meta_inclination": 69.994,
        "meta_ra_of_asc_node": 303.1627,
        "meta_arg_of_pericenter": 267.008,
        "meta_mean_anomaly": 102.5475,
        "meta_ephemeris_type": 0,
        "meta_classification_type": "U",
        "meta_norad_cat_id": 67017,
        "meta_element_set_no": 999,
        "meta_rev_at_epoch": 145,
        "meta_bstar": -0.0031563,
        "meta_mean_motion_dot": -0.01139193,
        "meta_mean_motion_ddot": 0.00039082,
        "tle_line1": "1 67017U 25293Q   25353.83335647 -.01139193  39082-3 -31563-2 0  9993",
        "tle_line2": "2 67017  69.9940 303.1627 0004031 267.0080 102.5475 15.93626114  1455"
      },
      "geometry": {
        "type": "Point",
        "coordinates": [
          -34.04074815303738,
          47.84375101403604
        ]
      }
    },
    {
      "type": "Feature",
      "properties": {
        "norad_id": 67018,
        "name": "STARLINK-36106",
        "group": "last-30-days",
        "lat": 49.85203175895232,
        "lon": -32.18331830379593,
        "alt_km": 291.0307975733067,
        "timestamp": "2025-12-20T03:42:46.123074+00:00",
        "meta_object_name": "STARLINK-36106",
        "meta_object_id": "2025-293R",
        "meta_epoch": "2025-12-19T20:00:01.999008",
        "meta_mean_motion": 15.93692163,
        "meta_eccentricity": 0.0004073,
        "meta_inclination": 69.9939,
        "meta_ra_of_asc_node": 303.1597,
        "meta_arg_of_pericenter": 269.2438,
        "meta_mean_anomaly": 102.5908,
        "meta_ephemeris_type": 0,
        "meta_classification_type": "U",
        "meta_norad_cat_id": 67018,
        "meta_element_set_no": 999,
        "meta_rev_at_epoch": 137,
        "meta_bstar": -0.0032035,
        "meta_mean_motion_dot": -0.01160054,
        "meta_mean_motion_ddot": 0.0004044,
        "tle_line1": "1 67018U 25293R   25353.83335647 -.01160054  40440-3 -32035-2 0  9999",
        "tle_line2": "2 67018  69.9939 303.1597 0004073 269.2438 102.5908 15.93692163  1376"
      },
      "geometry": {
        "type": "Point",
        "coordinates": [
          -32.18331830379593,
          49.85203175895232
        ]
      }
    },
    {
      "type": "Feature",
      "properties": {
        "norad_id": 67019,
        "name": "STARLINK-35688",
        "group": "last-30-days",
        "lat": 51.686899723036376,
        "lon": -30.316643894271202,
        "alt_km": 290.73306416618743,
        "timestamp": "2025-12-20T03:42:46.123084+00:00",
        "meta_object_name": "STARLINK-35688",
        "meta_object_id": "2025-293S",
        "meta_epoch": "2025-12-19T20:00:01.999008",
        "meta_mean_motion": 15.93733985,
        "meta_eccentricity": 0.0003935,
        "meta_inclination": 69.9938,
        "meta_ra_of_asc_node": 303.1572,
        "meta_arg_of_pericenter": 264.1265,
        "meta_mean_anomaly": 109.8407,
        "meta_ephemeris_type": 0,
        "meta_classification_type": "U",
        "meta_norad_cat_id": 67019,
        "meta_element_set_no": 999,
        "meta_rev_at_epoch": 145,
        "meta_bstar": -0.0031673,
        "meta_mean_motion_dot": -0.01149498,
        "meta_mean_motion_ddot": 0.00039781,
        "tle_line1": "1 67019U 25293S   25353.83335647 -.01149498  39781-3 -31673-2 0  9992",
        "tle_line2": "2 67019  69.9938 303.1572 0003935 264.1265 109.8407 15.93733985  1458"
      },
      "geometry": {
        "type": "Point",
        "coordinates": [
          -30.316643894271202,
          51.686899723036376
        ]
      }
    },
    {
      "type": "Feature",
      "properties": {
        "norad_id": 67020,
        "name": "STARLINK-36172",
        "group": "last-30-days",
        "lat": 53.98752293229072,
        "lon": -27.69653475038823,
        "alt_km": 290.2178000512349,
        "timestamp": "2025-12-20T03:42:46.123093+00:00",
        "meta_object_name": "STARLINK-36172",
        "meta_object_id": "2025-293T",
        "meta_epoch": "2025-12-19T20:00:01.999008",
        "meta_mean_motion": 15.93813969,
        "meta_eccentricity": 0.0003997,
        "meta_inclination": 69.9937,
        "meta_ra_of_asc_node": 303.1541,
        "meta_arg_of_pericenter": 269.4596,
        "meta_mean_anomaly": 107.21,
        "meta_ephemeris_type": 0,
        "meta_classification_type": "U",
        "meta_norad_cat_id": 67020,
        "meta_element_set_no": 999,
        "meta_rev_at_epoch": 137,
        "meta_bstar": -0.0032194,
        "meta_mean_motion_dot": -0.01173171,
        "meta_mean_motion_ddot": 0.00041339,
        "tle_line1": "1 67020U 25293T   25353.83335647 -.01173171  41339-3 -32194-2 0  9990",
        "tle_line2": "2 67020  69.9937 303.1541 0003997 269.4596 107.2100 15.93813969  1372"
      },
      "geometry": {
        "type": "Point",
        "coordinates": [
          -27.69653475038823,
          53.98752293229072
        ]
      }
    },
    {
      "type": "Feature",
      "properties": {
        "norad_id": 67021,
        "name": "STARLINK-36184",
        "group": "last-30-days",
        "lat": 56.02367130042692,
        "lon": -25.05484879741308,
        "alt_km": 289.91925307550537,
        "timestamp": "2025-12-20T03:42:46.123107+00:00",
        "meta_object_name": "STARLINK-36184",
        "meta_object_id": "2025-293U",
        "meta_epoch": "2025-12-19T20:00:01.999008",
        "meta_mean_motion": 15.9388166,
        "meta_eccentricity": 0.000399,
        "meta_inclination": 69.9938,
        "meta_ra_of_asc_node": 303.1509,
        "meta_arg_of_pericenter": 266.3324,
        "meta_mean_anomaly": 112.8064,
        "meta_ephemeris_type": 0,
        "meta_classification_type": "U",
        "meta_norad_cat_id": 67021,
        "meta_element_set_no": 999,
        "meta_rev_at_epoch": 137,
        "meta_bstar": -0.0032761,
        "meta_mean_motion_dot": -0.01197859,
        "meta_mean_motion_ddot": 0.00042988,
        "tle_line1": "1 67021U 25293U   25353.83335647 -.01197859  42988-3 -32761-2 0  9991",
        "tle_line2": "2 67021  69.9938 303.1509 0003990 266.3324 112.8064 15.93881660  1370"
      },
      "geometry": {
        "type": "Point",
        "coordinates": [
          -25.05484879741308,
          56.02367130042692
        ]
      }
    },
    {
      "type": "Feature",
      "properties": {
        "norad_id": 67022,
        "name": "STARLINK-36209",
        "group": "last-30-days",
        "lat": 58.33515722083207,
        "lon": -21.576138708104526,
        "alt_km": 289.4992655588676,
        "timestamp": "2025-12-20T03:42:46.123119+00:00",
        "meta_object_name": "STARLINK-36209",
        "meta_object_id": "2025-293V",
        "meta_epoch": "2025-12-19T20:00:01.999008",
        "meta_mean_motion": 15.93961912,
        "meta_eccentricity": 0.0003982,
        "meta_inclination": 69.9937,
        "meta_ra_of_asc_node": 303.1476,
        "meta_arg_of_pericenter": 267.2563,
        "meta_mean_anomaly": 114.7826,
        "meta_ephemeris_type": 0,
        "meta_classification_type": "U",
        "meta_norad_cat_id": 67022,
        "meta_element_set_no": 999,
        "meta_rev_at_epoch": 137,
        "meta_bstar": -0.0033619,
        "meta_mean_motion_dot": -0.01234078,
        "meta_mean_motion_ddot": 0.00045453,
        "tle_line1": "1 67022U 25293V   25353.83335647 -.01234078  45453-3 -33619-2 0  9990",
        "tle_line2": "2 67022  69.9937 303.1476 0003982 267.2563 114.7826 15.93961912  1375"
      },
      "geometry": {
        "type": "Point",
        "coordinates": [
          -21.576138708104526,
          58.33515722083207
        ]
      }
    },
    {
      "type": "Feature",
      "properties": {
        "norad_id": 67023,
        "name": "STARLINK-36191",
        "group": "last-30-days",
        "lat": 60.14406411773584,
        "lon": -18.387149081408555,
        "alt_km": 289.2028655435006,
        "timestamp": "2025-12-20T03:42:46.123129+00:00",
        "meta_object_name": "STARLINK-36191",
        "meta_object_id": "2025-293W",
        "meta_epoch": "2025-12-19T20:00:01.999008",
        "meta_mean_motion": 15.94032838,
        "meta_eccentricity": 0.0004033,
        "meta_inclination": 69.9936,
        "meta_ra_of_asc_node": 303.1443,
        "meta_arg_of_pericenter": 268.5533,
        "meta_mean_anomaly": 115.8505,
        "meta_ephemeris_type": 0,
        "meta_classification_type": "U",
        "meta_norad_cat_id": 67023,
        "meta_element_set_no": 999,
        "meta_rev_at_epoch": 130,
        "meta_bstar": -0.0034569,
        "meta_mean_motion_dot": -0.01273339,
        "meta_mean_motion_ddot": 0.00048191,
        "tle_line1": "1 67023U 25293W   25353.83335647 -.01273339  48191-3 -34569-2 0  9991",
        "tle_line2": "2 67023  69.9936 303.1443 0004033 268.5533 115.8505 15.94032838  1304"
      },
      "geometry": {
        "type": "Point",
        "coordinates": [
          -18.387149081408555,
          60.14406411773584
        ]
      }
    }
  ]
}